LEMUR-2-TARTIFLETTE     
1 66784U 25276DZ  26117.09310614  .00007668  00000+0  64639-3 0  9991
2 66784  97.5296 189.4997 0011706 316.8156  43.2148 14.98393671 22549
LEMUR-2-VUKASIN         
1 66785U 25276EA  26117.19824412  .00009072  00000+0  73892-3 0  9991
2 66785  97.5241 189.7914 0006078 301.7550  58.3081 14.99708098 22502
LEMUR-2-HOTSPUR-TOM     
1 66786U 25276EB  26117.14968624  .00008039  00000+0  67772-3 0  9993
2 66786  97.5267 189.5507 0011976 309.4793  50.5370 14.98374686 22487
LEMUR-2-MYRA            
1 66787U 25276EC  26117.09261700  .00006029  00000+0  49294-3 0  9995
2 66787  97.5312 189.6492 0010975 322.5053  37.5404 14.99669939 22556
LEMUR-2 FIKRETDENGIZ    
1 67363U 26004A   26117.23374761  .00005590  00000+0  61553-3 0  9998
2 67363  97.8020 116.5920 0007440 317.1744  42.8892 14.87931075 15700
LEMUR-2-CALLUM-K-J      
1 67364U 26004B   26117.24045153  .00002065  00000+0  23356-3 0  9993
2 67364  97.8064 116.6275 0007230 303.7634  56.2893 14.87524130 15710
LEMUR-2-MARIO-SOUSA     
1 67365U 26004C   26116.95420914  .00005444  00000+0  59736-3 0  9998
2 67365  97.7998 116.3153 0007054 320.1963  39.8735 14.88086898 15672
LEMUR-2-SONNENBLUME     
1 67367U 26004E   26117.21747355  .00003938  00000+0  43429-3 0  9999
2 67367  97.7989 116.5731 0006825 321.0087  39.0637 14.88049551 15713
LEMUR-2-WOBLER          
1 67368U 26004F   26117.28316671  .00005687  00000+0  62313-3 0  9996
2 67368  97.8046 116.7125 0006519 308.8341  51.2293 14.88133387 15720
LEMUR-2-GRAM-E-SUE      
1 67370U 26004H   26117.27474176  .00006077  00000+0  66392-3 0  9998
2 67370  97.7978 116.6394 0005915 325.7293  34.3541 14.88225259 15724
LEMUR-2-KATIE           
1 67387U 26004AA  26117.24670863  .00005213  00000+0  55015-3 0  9995
2 67387  97.8039 116.9101 0001310 248.6937 111.4141 14.89706054 15724
LEMUR-2-HCS-BAZUS       
1 67388U 26004AB  26117.31148305  .00005686  00000+0  60101-3 0  9991
2 67388  97.8031 116.9657 0000970 223.7483 136.3657 14.89603318 15732
